start=new Date('2022-07-28T00:00:00.000Z').valueOf();
sats=[{"SEMIMAJOR_AXIS":"6727.901","RA_OF_ASC_NODE":"278.7697","ELEMENT_SET_NO":"999","REF_FRAME":"TEME","NORAD_CAT_ID":"53007","GP_ID":"209001869","SITE":"AFETR","EPOCH":"2022-07-27T22:00:00.999936","MEAN_MOTION_DOT":"0.00012000","OBJECT_ID":"2022-076X","BSTAR":"0.00008980200000","MEAN_ELEMENT_THEORY":"SGP4","REV_AT_EPOCH":"130","DECAY_DATE":null,"TLE_LINE1":"1 53007U 22076X   22208.91667824  .00012000  00000-0  89802-4 0  9993","PERIOD":"91.533","RCS_SIZE":"MEDIUM","ARG_OF_PERICENTER":"29.0025","MEAN_MOTION":"15.73198082","LAUNCH_DATE":"2022-07-07","CENTER_NAME":"EARTH","MEAN_MOTION_DDOT":"0.0000000000000","TIME_SYSTEM":"UTC","ECCENTRICITY":"0.00020900","TLE_LINE2":"2 53007  53.2189 278.7697 0002090  29.0025  33.1192 15.73198082  1307","EPHEMERIS_TYPE":"0","MEAN_ANOMALY":"33.1192","INCLINATION":"53.2189","APOAPSIS":"351.172","FILE":"3523323","PERIAPSIS":"348.360","OBJECT_TYPE":"PAYLOAD","COUNTRY_CODE":"US","CLASSIFICATION_TYPE":"U","OBJECT_NAME":"STARLINK-4215"},{"OBJECT_NAME":"STARLINK-4275","COUNTRY_CODE":"US","CLASSIFICATION_TYPE":"U","OBJECT_TYPE":"PAYLOAD","PERIAPSIS":"348.485","FILE":"3523323","APOAPSIS":"350.904","INCLINATION":"53.2187","MEAN_ANOMALY":"43.3250","EPHEMERIS_TYPE":"0","ECCENTRICITY":"0.00017980","TLE_LINE2":"2 53008  53.2187 278.7710 0001798  17.6717  43.3250 15.73223065  1305","TIME_SYSTEM":"UTC","MEAN_MOTION_DDOT":"0.0000000000000","CENTER_NAME":"EARTH","LAUNCH_DATE":"2022-07-07","RCS_SIZE":"LARGE","ARG_OF_PERICENTER":"17.6717","MEAN_MOTION":"15.73223065","PERIOD":"91.532","TLE_LINE1":"1 53008U 22076Y   22208.91667824  .00004984  00000-0  39875-4 0  9991","DECAY_DATE":null,"REV_AT_EPOCH":"130","MEAN_ELEMENT_THEORY":"SGP4","BSTAR":"0.00003987500000","EPOCH":"2022-07-27T22:00:00.999936","MEAN_MOTION_DOT":"0.00004984","OBJECT_ID":"2022-076Y","SITE":"AFETR","NORAD_CAT_ID":"53008","GP_ID":"209001985","REF_FRAME":"TEME","ELEMENT_SET_NO":"999","RA_OF_ASC_NODE":"278.7710","SEMIMAJOR_AXIS":"6727.829"},{"MEAN_MOTION_DDOT":"0.0000000000000","TIME_SYSTEM":"UTC","TLE_LINE2":"2 53009  53.2184 278.3518 0001867  29.1758 147.0155 15.73195043  3712","ECCENTRICITY":"0.00018670","EPHEMERIS_TYPE":"0","MEAN_ANOMALY":"147.0155","LAUNCH_DATE":"2022-07-07","CENTER_NAME":"EARTH","PERIAPSIS":"348.518","COUNTRY_CODE":"US","CLASSIFICATION_TYPE":"U","OBJECT_TYPE":"PAYLOAD","OBJECT_NAME":"STARLINK-4277","INCLINATION":"53.2184","APOAPSIS":"351.030","FILE":"3523306","SITE":"AFETR","MEAN_MOTION_DOT":"-0.00024703","OBJECT_ID":"2022-076Z","EPOCH":"2022-07-28T00:00:00.999648","MEAN_ELEMENT_THEORY":"SGP4","BSTAR":"-0.00017213000000","REV_AT_EPOCH":"371","DECAY_DATE":null,"SEMIMAJOR_AXIS":"6727.909","RA_OF_ASC_NODE":"278.3518","ELEMENT_SET_NO":"999","REF_FRAME":"TEME","NORAD_CAT_ID":"53009","GP_ID":"208976728","RCS_SIZE":"LARGE","ARG_OF_PERICENTER":"29.1758","MEAN_MOTION":"15.73195043","TLE_LINE1":"1 53009U 22076Z   22209.00001157 -.00024703  00000-0 -17213-3 0  9998","PERIOD":"91.533"},{"TLE_LINE1":"1 53010U 22076AA  22208.91667824  .00011570  00000-0  86745-4 0  9991","PERIOD":"91.533","ARG_OF_PERICENTER":"17.1358","RCS_SIZE":"LARGE","MEAN_MOTION":"15.73199310","REF_FRAME":"TEME","ELEMENT_SET_NO":"999","SEMIMAJOR_AXIS":"6727.897","RA_OF_ASC_NODE":"278.7690","NORAD_CAT_ID":"53010","GP_ID":"209002355","MEAN_MOTION_DOT":"0.00011570","EPOCH":"2022-07-27T22:00:00.999936","OBJECT_ID":"2022-076AA","SITE":"AFETR","DECAY_DATE":null,"BSTAR":"0.00008674500000","MEAN_ELEMENT_THEORY":"SGP4","REV_AT_EPOCH":"130","APOAPSIS":"351.002","INCLINATION":"53.2184","FILE":"3523323","PERIAPSIS":"348.522","COUNTRY_CODE":"US","CLASSIFICATION_TYPE":"U","OBJECT_TYPE":"PAYLOAD","OBJECT_NAME":"STARLINK-4263","CENTER_NAME":"EARTH","LAUNCH_DATE":"2022-07-07","ECCENTRICITY":"0.00018430","TLE_LINE2":"2 53010  53.2184 278.7690 0001843  17.1358  44.4377 15.73199310  1306","MEAN_MOTION_DDOT":"0.0000000000000","TIME_SYSTEM":"UTC","MEAN_ANOMALY":"44.4377","EPHEMERIS_TYPE":"0"},{"PERIOD":"91.533","TLE_LINE1":"1 53011U 22076AB  22208.91667824  .00009185  00000-0  69805-4 0  9999","RCS_SIZE":"LARGE","ARG_OF_PERICENTER":"30.6041","MEAN_MOTION":"15.73195957","NORAD_CAT_ID":"53011","GP_ID":"209002226","REF_FRAME":"TEME","ELEMENT_SET_NO":"999","SEMIMAJOR_AXIS":"6727.907","RA_OF_ASC_NODE":"278.7641","DECAY_DATE":null,"MEAN_ELEMENT_THEORY":"SGP4","BSTAR":"0.00006980500000","REV_AT_EPOCH":"130","MEAN_MOTION_DOT":"0.00009185","EPOCH":"2022-07-27T22:00:00.999936","OBJECT_ID":"2022-076AB","SITE":"AFETR","FILE":"3523323","APOAPSIS":"351.161","INCLINATION":"53.2186","OBJECT_NAME":"STARLINK-4265","PERIAPSIS":"348.382","COUNTRY_CODE":"US","OBJECT_TYPE":"PAYLOAD","CLASSIFICATION_TYPE":"U","CENTER_NAME":"EARTH","LAUNCH_DATE":"2022-07-07","MEAN_ANOMALY":"33.9254","EPHEMERIS_TYPE":"0","ECCENTRICITY":"0.00020650","TLE_LINE2":"2 53011  53.2186 278.7641 0002065  30.6041  33.9254 15.73195957  1301","MEAN_MOTION_DDOT":"0.0000000000000","TIME_SYSTEM":"UTC"},{"RCS_SIZE":"LARGE","ARG_OF_PERICENTER":"29.7021","MEAN_MOTION":"15.73226875","TLE_LINE1":"1 53012U 22076AC  22208.91667824 -.00075245  00000-0 -53585-3 0  9999","PERIOD":"91.532","SITE":"AFETR","EPOCH":"2022-07-27T22:00:00.999936","MEAN_MOTION_DOT":"-0.00075245","OBJECT_ID":"2022-076AC","MEAN_ELEMENT_THEORY":"SGP4","BSTAR":"-0.00053585000000","REV_AT_EPOCH":"130","DECAY_DATE":null,"SEMIMAJOR_AXIS":"6727.819","RA_OF_ASC_NODE":"278.7670","REF_FRAME":"TEME","ELEMENT_SET_NO":"999","NORAD_CAT_ID":"53012","GP_ID":"209001630","PERIAPSIS":"348.456","COUNTRY_CODE":"US","OBJECT_TYPE":"PAYLOAD","CLASSIFICATION_TYPE":"U","OBJECT_NAME":"STARLINK-4271","INCLINATION":"53.2184","APOAPSIS":"350.911","FILE":"3523323","MEAN_MOTION_DDOT":"0.0000000000000","TIME_SYSTEM":"UTC","ECCENTRICITY":"0.00018250","TLE_LINE2":"2 53012  53.2184 278.7670 0001825  29.7021  33.0415 15.73226875  1306","EPHEMERIS_TYPE":"0","MEAN_ANOMALY":"33.0415","LAUNCH_DATE":"2022-07-07","CENTER_NAME":"EARTH"},{"ELEMENT_SET_NO":"999","REF_FRAME":"TEME","SEMIMAJOR_AXIS":"6727.710","RA_OF_ASC_NODE":"278.3414","GP_ID":"208976892","NORAD_CAT_ID":"53013","MEAN_MOTION_DOT":"-0.00281230","OBJECT_ID":"2022-076AD","EPOCH":"2022-07-28T00:00:00.999648","SITE":"AFETR","DECAY_DATE":null,"MEAN_ELEMENT_THEORY":"SGP4","BSTAR":"-0.00206100000000","REV_AT_EPOCH":"371","TLE_LINE1":"1 53013U 22076AD  22209.00001157 -.00281230  00000-0 -20610-2 0  9997","PERIOD":"91.529","ARG_OF_PERICENTER":"30.9570","RCS_SIZE":"LARGE","MEAN_MOTION":"15.73264790","CENTER_NAME":"EARTH","LAUNCH_DATE":"2022-07-07","ECCENTRICITY":"0.00020070","TLE_LINE2":"2 53013  53.2176 278.3414 0002007  30.9570 147.6545 15.73264790  3717","MEAN_MOTION_DDOT":"0.0000000000000","TIME_SYSTEM":"UTC","MEAN_ANOMALY":"147.6545","EPHEMERIS_TYPE":"0","APOAPSIS":"350.926","INCLINATION":"53.2176","FILE":"3523306","PERIAPSIS":"348.225","COUNTRY_CODE":"US","OBJECT_TYPE":"PAYLOAD","CLASSIFICATION_TYPE":"U","OBJECT_NAME":"STARLINK-4177"},{"ARG_OF_PERICENTER":"33.0153","RCS_SIZE":"LARGE","MEAN_MOTION":"15.73209091","PERIOD":"91.533","TLE_LINE1":"1 53014U 22076AE  22208.91667824  .00014703  00000-0  10895-3 0  9998","DECAY_DATE":null,"BSTAR":"0.00010895000000","MEAN_ELEMENT_THEORY":"SGP4","REV_AT_EPOCH":"130","EPOCH":"2022-07-27T22:00:00.999936","MEAN_MOTION_DOT":"0.00014703","OBJECT_ID":"2022-076AE","SITE":"AFETR","GP_ID":"209002468","NORAD_CAT_ID":"53014","ELEMENT_SET_NO":"999","REF_FRAME":"TEME","SEMIMAJOR_AXIS":"6727.869","RA_OF_ASC_NODE":"278.7675","OBJECT_NAME":"STARLINK-4183","PERIAPSIS":"348.286","CLASSIFICATION_TYPE":"U","COUNTRY_CODE":"US","OBJECT_TYPE":"PAYLOAD","FILE":"3523323","APOAPSIS":"351.182","INCLINATION":"53.2189","MEAN_ANOMALY":"30.3056","EPHEMERIS_TYPE":"0","ECCENTRICITY":"0.00021520","TLE_LINE2":"2 53014  53.2189 278.7675 0002152  33.0153  30.3056 15.73209091  1308","MEAN_MOTION_DDOT":"0.0000000000000","TIME_SYSTEM":"UTC","CENTER_NAME":"EARTH","LAUNCH_DATE":"2022-07-07"},{"RA_OF_ASC_NODE":"278.3454","SEMIMAJOR_AXIS":"6727.895","REF_FRAME":"TEME","ELEMENT_SET_NO":"999","NORAD_CAT_ID":"53015","GP_ID":"208976910","SITE":"AFETR","EPOCH":"2022-07-28T00:00:00.999648","MEAN_MOTION_DOT":"0.00024995","OBJECT_ID":"2022-076AF","REV_AT_EPOCH":"371","BSTAR":"0.00018197000000","MEAN_ELEMENT_THEORY":"SGP4","DECAY_DATE":null,"TLE_LINE1":"1 53015U 22076AF  22209.00001157  .00024995  00000-0  18197-3 0  9998","PERIOD":"91.533","RCS_SIZE":"LARGE","ARG_OF_PERICENTER":"19.1572","MEAN_MOTION":"15.73200147","LAUNCH_DATE":"2022-07-07","CENTER_NAME":"EARTH","TIME_SYSTEM":"UTC","MEAN_MOTION_DDOT":"0.0000000000000","TLE_LINE2":"2 53015  53.2185 278.3454 0001957  19.1572 160.5798 15.73200147  3717","ECCENTRICITY":"0.00019570","EPHEMERIS_TYPE":"0","MEAN_ANOMALY":"160.5798","INCLINATION":"53.2185","APOAPSIS":"351.076","FILE":"3523309","COUNTRY_CODE":"US","OBJECT_TYPE":"PAYLOAD","CLASSIFICATION_TYPE":"U","PERIAPSIS":"348.443","OBJECT_NAME":"STARLINK-4262"},{"GP_ID":"209001986","NORAD_CAT_ID":"53016","ELEMENT_SET_NO":"999","REF_FRAME":"TEME","SEMIMAJOR_AXIS":"6727.884","RA_OF_ASC_NODE":"278.7520","DECAY_DATE":null,"MEAN_ELEMENT_THEORY":"SGP4","BSTAR":"0.00000295690000","REV_AT_EPOCH":"130","MEAN_MOTION_DOT":"-0.00000206","OBJECT_ID":"2022-076AG","EPOCH":"2022-07-27T22:00:00.999936","SITE":"AFETR","PERIOD":"91.533","TLE_LINE1":"1 53016U 22076AG  22208.91667824 -.00000206  00000-0  29569-5 0  9994","MEAN_MOTION":"15.73204071","RCS_SIZE":"LARGE","ARG_OF_PERICENTER":"33.6912","CENTER_NAME":"EARTH","LAUNCH_DATE":"2022-07-07","MEAN_ANOMALY":"31.3837","EPHEMERIS_TYPE":"0","ECCENTRICITY":"0.00016530","TLE_LINE2":"2 53016  53.2175 278.7520 0001653  33.6912  31.3837 15.73204071  1309","MEAN_MOTION_DDOT":"0.0000000000000","TIME_SYSTEM":"UTC","FILE":"3523323","APOAPSIS":"350.861","INCLINATION":"53.2175","OBJECT_NAME":"STARLINK-4283","PERIAPSIS":"348.636","COUNTRY_CODE":"US","CLASSIFICATION_TYPE":"U","OBJECT_TYPE":"PAYLOAD"}];
